{
  "type": "FeatureCollection",
  "features": [
    {
      "type": "Feature",
      "properties": {
        "norad_id": 66615,
        "name": "STARLINK-35988",
        "group": "last-30-days",
        "lat": -14.761303443186193,
        "lon": -172.41008471016673,
        "alt_km": 416.5376907513446,
        "timestamp": "2025-12-10T18:56:58.833792+00:00",
        "meta_object_name": "STARLINK-35988",
        "meta_object_id": "2025-270AD",
        "meta_epoch": "2025-12-10T12:00:02.998944",
        "meta_mean_motion": 15.51054303,
        "meta_eccentricity": 0.0001787,
        "meta_inclination": 42.9996,
        "meta_ra_of_asc_node": 205.7097,
        "meta_arg_of_pericenter": 245.8643,
        "meta_mean_anomaly": 273.8551,
        "meta_ephemeris_type": 0,
        "meta_classification_type": "U",
        "meta_norad_cat_id": 66615,
        "meta_element_set_no": 999,
        "meta_rev_at_epoch": 388,
        "meta_bstar": -0.013959,
        "meta_mean_motion_dot": -0.00767434,
        "meta_mean_motion_ddot": 0,
        "tle_line1": "1 66615U 25270AD  25344.50003471 -.00767434  00000+0 -13959-1 0  9998",
        "tle_line2": "2 66615  42.9996 205.7097 0001787 245.8643 273.8551 15.51054303  3887"
      },
      "geometry": {
        "type": "Point",
        "coordinates": [
          -172.41008471016673,
          -14.761303443186193
        ]
      }
    },
    {
      "type": "Feature",
      "properties": {
        "norad_id": 66616,
        "name": "STARLINK-35391",
        "group": "last-30-days",
        "lat": -12.22825128541413,
        "lon": -169.44281434478103,
        "alt_km": 415.9504355541767,
        "timestamp": "2025-12-10T18:56:58.833802+00:00",
        "meta_object_name": "STARLINK-35391",
        "meta_object_id": "2025-270AE",
        "meta_epoch": "2025-12-10T12:00:02.998944",
        "meta_mean_motion": 15.51045419,
        "meta_eccentricity": 0.0001949,
        "meta_inclination": 42.9997,
        "meta_ra_of_asc_node": 205.7006,
        "meta_arg_of_pericenter": 259.5855,
        "meta_mean_anomaly": 263.9695,
        "meta_ephemeris_type": 0,
        "meta_classification_type": "U",
        "meta_norad_cat_id": 66616,
        "meta_element_set_no": 999,
        "meta_rev_at_epoch": 414,
        "meta_bstar": -0.012848,
        "meta_mean_motion_dot": -0.0070167,
        "meta_mean_motion_ddot": 0,
        "tle_line1": "1 66616U 25270AE  25344.50003471 -.00701670  00000+0 -12848-1 0  9995",
        "tle_line2": "2 66616  42.9997 205.7006 0001949 259.5855 263.9695 15.51045419  4143"
      },
      "geometry": {
        "type": "Point",
        "coordinates": [
          -169.44281434478103,
          -12.22825128541413
        ]
      }
    },
    {
      "type": "Feature",
      "properties": {
        "norad_id": 66617,
        "name": "STARLINK-35940",
        "group": "last-30-days",
        "lat": -22.522764242416283,
        "lon": 178.50923332635674,
        "alt_km": 396.004326678747,
        "timestamp": "2025-12-10T18:56:58.833814+00:00",
        "meta_object_name": "STARLINK-35940",
        "meta_object_id": "2025-271A",
        "meta_epoch": "2025-12-10T12:00:02.998944",
        "meta_mean_motion": 15.59676104,
        "meta_eccentricity": 0.0001174,
        "meta_inclination": 53.1597,
        "meta_ra_of_asc_node": 198.0278,
        "meta_arg_of_pericenter": 99.0519,
        "meta_mean_anomaly": 46.4772,
        "meta_ephemeris_type": 0,
        "meta_classification_type": "U",
        "meta_norad_cat_id": 66617,
        "meta_element_set_no": 999,
        "meta_rev_at_epoch": 388,
        "meta_bstar": -0.027184,
        "meta_mean_motion_dot": -0.01947565,
        "meta_mean_motion_ddot": 0,
        "tle_line1": "1 66617U 25271A   25344.50003471 -.01947565  00000+0 -27184-1 0  9992",
        "tle_line2": "2 66617  53.1597 198.0278 0001174  99.0519  46.4772 15.59676104  3882"
      },
      "geometry": {
        "type": "Point",
        "coordinates": [
          178.50923332635674,
          -22.522764242416283
        ]
      }
    },
    {
      "type": "Feature",
      "properties": {
        "norad_id": 66618,
        "name": "STARLINK-35970",
        "group": "last-30-days",
        "lat": 19.553304817621985,
        "lon": -148.04691975951667,
        "alt_km": 390.18220198413655,
        "timestamp": "2025-12-10T18:56:58.833828+00:00",
        "meta_object_name": "STARLINK-35970",
        "meta_object_id": "2025-271B",
        "meta_epoch": "2025-12-10T12:00:02.998944",
        "meta_mean_motion": 15.59689571,
        "meta_eccentricity": 0.0001084,
        "meta_inclination": 53.1596,
        "meta_ra_of_asc_node": 197.9152,
        "meta_arg_of_pericenter": 108.6362,
        "meta_mean_anomaly": 90.2155,
        "meta_ephemeris_type": 0,
        "meta_classification_type": "U",
        "meta_norad_cat_id": 66618,
        "meta_element_set_no": 999,
        "meta_rev_at_epoch": 388,
        "meta_bstar": -0.027514,
        "meta_mean_motion_dot": -0.01969138,
        "meta_mean_motion_ddot": 0,
        "tle_line1": "1 66618U 25271B   25344.50003471 -.01969138  00000+0 -27514-1 0  9990",
        "tle_line2": "2 66618  53.1596 197.9152 0001084 108.6362  90.2155 15.59689571  3888"
      },
      "geometry": {
        "type": "Point",
        "coordinates": [
          -148.04691975951667,
          19.553304817621985
        ]
      }
    },
    {
      "type": "Feature",
      "properties": {
        "norad_id": 66619,
        "name": "STARLINK-35951",
        "group": "last-30-days",
        "lat": -16.61465401598956,
        "lon": -176.3217451455144,
        "alt_km": 395.36115288734345,
        "timestamp": "2025-12-10T18:56:58.833839+00:00",
        "meta_object_name": "STARLINK-35951",
        "meta_object_id": "2025-271C",
        "meta_epoch": "2025-12-10T12:00:02.998944",
        "meta_mean_motion": 15.59687773,
        "meta_eccentricity": 0.0001127,
        "meta_inclination": 53.1599,
        "meta_ra_of_asc_node": 198.0106,
        "meta_arg_of_pericenter": 97.5753,
        "meta_mean_anomaly": 55.6185,
        "meta_ephemeris_type": 0,
        "meta_classification_type": "U",
        "meta_norad_cat_id": 66619,
        "meta_element_set_no": 999,
        "meta_rev_at_epoch": 388,
        "meta_bstar": -0.027435,
        "meta_mean_motion_dot": -0.01964077,
        "meta_mean_motion_ddot": 0,
        "tle_line1": "1 66619U 25271C   25344.50003471 -.01964077  00000+0 -27435-1 0  9990",
        "tle_line2": "2 66619  53.1599 198.0106 0001127  97.5753  55.6185 15.59687773  3881"
      },
      "geometry": {
        "type": "Point",
        "coordinates": [
          -176.3217451455144,
          -16.61465401598956
        ]
      }
    },
    {
      "type": "Feature",
      "properties": {
        "norad_id": 66620,
        "name": "STARLINK-35936",
        "group": "last-30-days",
        "lat": -21.058794303227746,
        "lon": 179.83989184984455,
        "alt_km": 395.80043730555644,
        "timestamp": "2025-12-10T18:56:58.833849+00:00",
        "meta_object_name": "STARLINK-35936",
        "meta_object_id": "2025-271D",
        "meta_epoch": "2025-12-10T12:00:02.998944",
        "meta_mean_motion": 15.59683494,
        "meta_eccentricity": 0.0001105,
        "meta_inclination": 53.1599,
        "meta_ra_of_asc_node": 198.0238,
        "meta_arg_of_pericenter": 95.7071,
        "meta_mean_anomaly": 51.7382,
        "meta_ephemeris_type": 0,
        "meta_classification_type": "U",
        "meta_norad_cat_id": 66620,
        "meta_element_set_no": 999,
        "meta_rev_at_epoch": 388,
        "meta_bstar": -0.027366,
        "meta_mean_motion_dot": -0.01959494,
        "meta_mean_motion_ddot": 0,
        "tle_line1": "1 66620U 25271D   25344.50003471 -.01959494  00000+0 -27366-1 0  9992",
        "tle_line2": "2 66620  53.1599 198.0238 0001105  95.7071  51.7382 15.59683494  3880"
      },
      "geometry": {
        "type": "Point",
        "coordinates": [
          179.83989184984455,
          -21.058794303227746
        ]
      }
    },
    {
      "type": "Feature",
      "properties": {
        "norad_id": 66621,
        "name": "STARLINK-35847",
        "group": "last-30-days",
        "lat": 22.267628824517214,
        "lon": -145.61969525255256,
        "alt_km": 389.71711974540995,
        "timestamp": "2025-12-10T18:56:58.833861+00:00",
        "meta_object_name": "STARLINK-35847",
        "meta_object_id": "2025-271E",
        "meta_epoch": "2025-12-10T12:00:02.998944",
        "meta_mean_motion": 15.59642571,
        "meta_eccentricity": 0.0001383,
        "meta_inclination": 53.1597,
        "meta_ra_of_asc_node": 197.9073,
        "meta_arg_of_pericenter": 109.3322,
        "meta_mean_anomaly": 93.092,
        "meta_ephemeris_type": 0,
        "meta_classification_type": "U",
        "meta_norad_cat_id": 66621,
        "meta_element_set_no": 999,
        "meta_rev_at_epoch": 388,
        "meta_bstar": -0.0268,
        "meta_mean_motion_dot": -0.01921272,
        "meta_mean_motion_ddot": 0,
        "tle_line1": "1 66621U 25271E   25344.50003471 -.01921272  00000+0 -26800-1 0  9998",
        "tle_line2": "2 66621  53.1597 197.9073 0001383 109.3322  93.0920 15.59642571  3881"
      },
      "geometry": {
        "type": "Point",
        "coordinates": [
          -145.61969525255256,
          22.267628824517214
        ]
      }
    }
  ]
}